[
    {
        "CCSDS_OMM_VERS": "3.0",
        "COMMENT": "GENERATED VIA SPACE-TRACK.ORG API",
        "CREATION_DATE": "2025-05-03T17:28:03",
        "ORIGINATOR": "18 SPCS",
        "OBJECT_NAME": "BEIDOU 12",
        "OBJECT_ID": "2012-018A",
        "CENTER_NAME": "EARTH",
        "REF_FRAME": "TEME",
        "TIME_SYSTEM": "UTC",
        "MEAN_ELEMENT_THEORY": "SGP4",
        "EPOCH": "2025-05-02T22:55:22.886400",
        "MEAN_MOTION": "1.86233640",
        "ECCENTRICITY": "0.00204940",
        "INCLINATION": "56.1026",
        "RA_OF_ASC_NODE": "318.6639",
        "ARG_OF_PERICENTER": "271.1468",
        "MEAN_ANOMALY": "88.6249",
        "EPHEMERIS_TYPE": "0",
        "CLASSIFICATION_TYPE": "U",
        "NORAD_CAT_ID": "38250",
        "ELEMENT_SET_NO": "999",
        "REV_AT_EPOCH": "8830",
        "BSTAR": "0.00000000000000",
        "MEAN_MOTION_DOT": "-0.00000068",
        "MEAN_MOTION_DDOT": "0.0000000000000",
        "SEMIMAJOR_AXIS": "27905.925",
        "PERIOD": "773.222",
        "APOAPSIS": "21584.980",
        "PERIAPSIS": "21470.599",
        "OBJECT_TYPE": "PAYLOAD",
        "RCS_SIZE": "LARGE",
        "COUNTRY_CODE": "PRC",
        "LAUNCH_DATE": "2012-04-29",
        "SITE": "XSC",
        "DECAY_DATE": null,
        "FILE": "4717971",
        "GP_ID": "286758897",
        "TLE_LINE0": "0 BEIDOU 12",
        "TLE_LINE1": "1 38250U 12018A   25122.95512600 -.00000068  00000-0  00000-0 0  9995",
        "TLE_LINE2": "2 38250  56.1026 318.6639 0020494 271.1468  88.6249  1.86233640 88303"
    }
]